HORYU-4                 
1 41340U 16012D   20156.86816427  .00000440  00000-0  26527-4 0  9992
2 41340  31.0060  51.9322 0013747  23.4752 336.6509 15.01497621235986
E-ST@R-II               
1 41459U 16025D   20157.04047928  .00001718  00000-0  90497-4 0  9996
2 41459  98.1026 266.3833 0164043 253.1996 105.1167 15.06388219225570
AAUSAT 4                
1 41460U 16025E   20157.06399635  .00001347  00000-0  70010-4 0  9992
2 41460  98.0980 268.6914 0152751 242.1744 116.3964 15.08666201225770
BEESAT-4                
1 41619U 16040W   20156.81897897  .00001250  00000-0  54484-4 0  9990
2 41619  97.3200 216.6517 0009982 216.6473 143.4083 15.23985283207478
CANX-7                  
1 41788U 16059F   20157.18490222  .00005364  00000-0  74309-3 0  9996
2 41788  98.2539 244.7094 0022160 342.5822  17.4645 14.78270269198004
RAVAN                   
1 41849U 16067B   20156.85593204  .00001122  00000-0  98807-4 0  9998
2 41849  97.9329 266.4929 0006087 288.3444  71.7116 14.98554800194730
CELTEE 1                
1 41850U 16067C   20156.83953018  .00000539  00000-0  51918-4 0  9994
2 41850  97.9259 264.2421 0007199 292.9255  67.1206 14.97176693194618
OPTICUBE 04             
1 41851U 16067D   20156.83453930  .00000310  00000-0  32295-4 0  9997
2 41851  97.9247 263.8633 0007472 295.3480  64.6966 14.96918957194595
AEROCUBE 8D             
1 41852U 16067E   20156.85051368  .00000768  00000-0  72169-4 0  9990
2 41852  97.9262 263.7145 0007944 297.0965  62.9445 14.96908099194578
AEROCUBE 8C             
1 41853U 16067F   20156.88176190 -.00000185  00000-0 -10827-4 0  9993
2 41853  97.9252 263.6524 0008890 297.4293  62.6023 14.96868690194578
PROMETHEUS 2-1          
1 41854U 16067G   20156.85405913  .00000860  00000-0  79664-4 0  9991
2 41854  97.9271 263.9446 0008528 297.3762  62.6591 14.97191560194581
PROMETHEUS 2-3          
1 41855U 16067H   20156.85457453  .00000827  00000-0  76752-4 0  9996
2 41855  97.9275 263.9772 0008714 297.8285  62.2053 14.97201647194587
INS-1B                  
1 41954U 17008G   20156.87772976  .00001166  00000-0  49886-4 0  9999
2 41954  97.3547 221.5030 0008685 357.1237   2.9949 15.24757908183450
BGUSAT                  
1 41999U 17008BD  20156.76390412  .00002069  00000-0  79695-4 0  9991
2 41999  97.3662 225.4645 0007792   9.2751 350.8630 15.27464931183014
DIDO-2                  
1 42000U 17008BE  20157.16629385  .00000719  00000-0  32128-4 0  9994
2 42000  97.3555 222.2971 0008676  15.5105 344.6397 15.24460652182890
PEASSS                  
1 42015U 17008BV  20157.15283727  .00001057  00000-0  44405-4 0  9992
2 42015  97.3579 223.8592 0006712  22.9881 337.1656 15.25595209183478
AL-FARABI 1             
1 42016U 17008BW  20156.72187797  .00001361  00000-0  55011-4 0  9998
2 42016  97.3608 224.4587 0006584  23.9728 336.1816 15.26429517183589
NAYIF-1 (EO-88)         
1 42017U 17008BX  20156.83204475  .00001387  00000-0  55938-4 0  9990
2 42017  97.3602 224.5781 0006617  22.7130 337.4400 15.26470208183623
UCLSAT                  
1 42765U 17036A   20156.80939365  .00001141  00000-0  50631-4 0  9994
2 42765  97.3015 211.3902 0013023  73.9275 286.3395 15.23505291164652
LITUANICASAT-2          
1 42768U 17036D   20156.72534753  .00002008  00000-0  85427-4 0  9994
2 42768  97.3070 211.2610 0016249  64.7794 295.5126 15.24036420163903
AALTO-1                 
1 42775U 17036L   20156.82823287  .00000739  00000-0  35447-4 0  9992
2 42775  97.2991 209.2619 0015442  67.1937 293.0928 15.21827453163755
URSA MAIOR              
1 42776U 17036M   20156.81905169  .00000805  00000-0  38129-4 0  9996
2 42776  97.3003 209.5320 0015256  67.0146 293.2698 15.22008917163761
COMPASS 2               
1 42777U 17036N   20156.81213240  .00001589  00000-0  68564-4 0  9995
2 42777  97.3060 211.7695 0013851  65.9424 294.3261 15.23895604163878
DIAMOND RED             
1 42783U 17036U   20156.79825615  .00000947  00000-0  43347-4 0  9993
2 42783  97.3015 210.6605 0013728  75.5306 284.7453 15.22818238163821
PEGASUS                 
1 42784U 17036V   20156.83212054  .00001100  00000-0  49341-4 0  9998
2 42784  97.3020 211.1070 0013571  74.4718 285.8016 15.23195018163856
DIAMOND GREEN           
1 42785U 17036W   20156.86276731  .00000961  00000-0  43920-4 0  9995
2 42785  97.3018 210.7582 0013638  75.9522 284.3230 15.22818707163904
DIAMOND BLUE            
1 42786U 17036X   20156.79625862  .00000943  00000-0  43185-4 0  9994
2 42786  97.3017 210.6891 0013481  76.3609 283.9128 15.22818617163892
NUDTSAT                 
1 42787U 17036Y   20156.89989260  .00001475  00000-0  62739-4 0  9998
2 42787  97.3058 212.5374 0013116  65.5616 294.6994 15.24490541163780
SUCHAI                  
1 42788U 17036Z   20156.66389454  .00001292  00000-0  56532-4 0  9994
2 42788  97.3028 211.5197 0013113  73.7404 286.5274 15.23740587163938
SKCUBE                  
1 42789U 17036AA  20156.84000734  .00001225  00000-0  53981-4 0  9997
2 42789  97.3023 211.5478 0012983  73.4638 286.8025 15.23584751163875
VZLUSAT-1               
1 42790U 17036AB  20156.82312841  .00001647  00000-0  69785-4 0  9999
2 42790  97.3047 212.4599 0012468  71.8165 288.4429 15.24481459163926
ROBUSTA-1B              
1 42792U 17036AD  20156.79536361  .00001227  00000-0  53813-4 0  9991
2 42792  97.3025 211.7516 0012577  74.0552 286.2070 15.23771760163891
CICERO 6                
1 42793U 17036AE  20156.71127346  .00000839  00000-0  38404-4 0  9990
2 42793  97.3001 211.0935 0011914  76.6354 283.6210 15.23127043163926
D-SAT                   
1 42794U 17036AF  20156.76084270  .00000289  00000-0  30119-4 0  9998
2 42794  97.4942 190.0450 0127393  47.9329 313.2643 14.91275317160808
CORVUS BC2              
1 42846U 17042X   20157.10155689  .00000244  00000-0  29187-4 0  9999
2 42846  97.5247  41.2160 0008729 327.8319  32.2367 14.92103830157561
CORVUS BC1              
1 42847U 17042Y   20156.82986387  .00000315  00000-0  36132-4 0  9992
2 42847  97.5250  41.1237 0008372 328.3341  31.7374 14.92204831157526
MIRATA                  
1 43015U 17073C   20156.82658480  .00001056  00000-0  85843-4 0  9990
2 43015  97.7199  69.5223 0254887  89.7506 273.2908 14.79624960137351
MAKERSAT 0              
1 43016U 17073D   20156.71652723  .00000705  00000-0  59107-4 0  9997
2 43016  97.7236  69.5994 0257599  91.1380 271.9354 14.79198344137328
DELLINGR (RBLE)         
1 43021U 98067NJ  20157.08944365  .00012455  00000-0  10400-3 0  9999
2 43021  51.6358 343.0052 0001119  35.1062 325.0009 15.70483166144926
AEROCUBE 7B (OCSD B)    
1 43042U 17071F   20157.13034608  .00003415  00000-0  84031-4 0  9992
2 43042  51.6365 127.0263 0004720   9.1049 351.0022 15.43535950140477
AEROCUBE 7C (OCSD C)    
1 43043U 17071G   20156.22708705  .00003239  00000-0  80269-4 0  9991
2 43043  51.6362 131.5097 0004955   9.4104 350.6974 15.43503594140307
CHEFSAT                 
1 43044U 17071H   20156.45014369  .00007605  00000-0  14996-3 0  9997
2 43044  51.6370 116.0164 0004829  17.4621 342.6532 15.48229934140537
ASGARDIA 1              
1 43049U 17071N   20156.80354702  .00003184  00000-0  78904-4 0  9997
2 43049  51.6374 127.9311 0002831  30.9604 329.1548 15.43554696140407
ISARA                   
1 43050U 17071P   20156.87582130  .00005608  00000-0  11660-3 0  9992
2 43050  51.6352 116.4914 0002854  34.2348 325.8823 15.47250771140561
PROPCUBE 2 (FAUNA)      
1 43052U 17071R   20156.79344388  .00003556  00000-0  85788-4 0  9999
2 43052  51.6369 126.3814 0002777  28.6835 331.4304 15.44001511140416
CORVUS BC3              
1 43118U 18004H   20156.74944806  .00000737  00000-0  33983-4 0  9993
2 43118  97.4442 227.1255 0012058  96.6639 263.5971 15.23351492133069
MICROMAS-2A             
1 43131U 18004W   20157.11755025  .00001759  00000-0  72751-4 0  9994
2 43131  97.4489 229.1778 0010934  94.7918 265.4568 15.25255663133212
SPACEBEE-4              
1 43139U 18004AE  20156.70295259  .00002553  00000-0  10046-3 0  9995
2 43139  97.4525 229.9152 0010357  97.0531 263.1886 15.26526954133203
SPACEBEE-3              
1 43140U 18004AF  20156.85136051  .00003110  00000-0  11855-3 0  9996
2 43140  97.4542 230.7291 0010053  95.4972 264.7414 15.27413901133271
SPACEBEE-2              
1 43141U 18004AG  20156.83343341  .00003464  00000-0  13055-3 0  9993
2 43141  97.4556 230.9618 0010035  95.0895 265.1490 15.27715737133284
SPACEBEE-1              
1 43142U 18004AH  20156.67315763  .00003654  00000-0  13611-3 0  9992
2 43142  97.4559 231.0542 0010005  95.5591 264.6790 15.28064803133268
CICERO 7                
1 43143U 18004AJ  20156.79096632  .00001451  00000-0  60473-4 0  9999
2 43143  97.4469 229.0378 0009116 103.1225 257.1030 15.25296899133188
GOMX-4B                 
1 43196U 18015E   20156.87814418  .00000667  00000-0  30152-4 0  9997
2 43196  97.4364 285.5109 0019806 144.9472 215.3073 15.24253026129983
GOMX-4A                 
1 43197U 18015F   20157.25731704  .00000828  00000-0  36469-4 0  9993
2 43197  97.4351 285.9707 0020160 144.4519  63.7083 15.24492472130056
1KUNS-PF                
1 43466U 98067NP  20156.85919284  .00763044  35802-3  56875-3 0  9992
2 43466  51.6202 316.0807 0011622 300.9705  59.0168 16.14657782118514
UBAKUSAT                
1 43467U 98067NQ  20157.10790972  .00026454  00000-0  17832-3 0  9999
2 43467  51.6334 345.2499 0000140 299.9067  60.1918 15.74923467118161
CUBERRT                 
1 43546U 98067NU  20156.99619536  .00012673  00000-0  94124-4 0  9997
2 43546  51.6345 345.2901 0002882  49.7032 310.4218 15.73277005108282
TEMPEST-D               
1 43547U 98067NV  20156.87550839  .00005905  00000-0  71049-4 0  9996
2 43547  51.6375  15.3735 0004783  18.1965 341.9199 15.62441156107557
RAINCUBE                
1 43548U 98067NW  20156.82089747  .00026936  00000-0  19119-3 0  9993
2 43548  51.6341 354.5866 0003232  54.9783 305.1519 15.73708267108277
